ONEWEB-0228             
1 48780U 21045P   24009.20606814 -.00000043  00000+0 -14898-3 0  9992
2 48780  87.8982  76.3472 0001845 104.3096 255.8239 13.15550069128449
